COSMOS 2433 (720)       
1 32275U 07052A   22099.25556819 -.00000081  00000+0  00000+0 0  9994
2 32275  66.0837   6.9663 0002802 288.5057 165.9326  2.13104041112493
COSMOS 2432 (719)       
1 32276U 07052B   22098.84355203 -.00000082  00000+0  00000+0 0  9994
2 32276  66.0972   7.0786 0011654 331.8723 114.9897  2.13103445112482
COSMOS 2434 (721)       
1 32393U 07065A   22099.74503069  .00000026  00000+0  00000+0 0  9990
2 32393  64.3978 243.7697 0004760  80.3813 278.8763  2.13103084111205
COSMOS 2436 (723)       
1 32395U 07065C   22098.69625943  .00000032  00000+0  00000+0 0  9998
2 32395  64.4069 243.8620 0016034   7.3152  43.2716  2.13102929111128
COSMOS 2456 (730)       
1 36111U 09070A   22099.65157449  .00000065  00000+0  00000+0 0  9990
2 36111  64.3346 123.4165 0005729 300.8232 153.2618  2.13099169 95878
COSMOS 2457 (733)       
1 36112U 09070B   22099.12951456  .00000058  00000+0  00000+0 0  9995
2 36112  64.3175 123.3114 0004597 193.5512 346.7749  2.13101366 95868
COSMOS 2461 (735)       
1 36401U 10007B   22099.56635841 -.00000080  00000+0  00000+0 0  9999
2 36401  65.9705   5.8039 0022095   5.6477 184.7140  2.13103755 94229
COSMOS 2460 (732)       
1 36402U 10007C   22099.53547882 -.00000080  00000+0  00000+0 0  9994
2 36402  65.9572   5.7553 0002207   0.4019 114.0383  2.13106364 94224
COSMOS 2464 (736)       
1 37139U 10041C   22099.55374971  .00000025  00000+0  00000+0 0  9997
2 37139  63.9972 242.8862 0029726  13.7442  57.5080  2.13100680 90285
COSMOS 2476 (744)       
1 37867U 11064A   22099.35846086  .00000061  00000+0  00000+0 0  9990
2 37867  64.6247 124.7561 0022999 240.2085 253.9340  2.13101850 81219
COSMOS 2477 (745)       
1 37868U 11064B   22098.63133800  .00000052  00000+0  00000+0 0  9994
2 37868  64.6322 124.8447 0020367 241.6792 232.7893  2.13101678 81154
COSMOS 2475 (743)       
1 37869U 11064C   22099.11467757  .00000058  00000+0  00000+0 0  9996
2 37869  64.6395 124.8352 0024768 257.7941 185.4169  2.13101872 81171
COSMOS 2485 (747)       
1 39155U 13019A   22099.19553355  .00000059  00000+0  00000+0 0  9997
2 39155  64.7886 125.1753 0023327 236.0386 177.5103  2.13101867 69685
COSMOS 2492 (754)       
1 39620U 14012A   22099.10509497 -.00000082  00000+0  00000+0 0  9994
2 39620  65.8437   5.4615 0014677 327.7774  50.9367  2.13103172 62635
COSMOS 2500 (755)       
1 40001U 14032A   22098.91497480 -.00000082  00000+0  00000+0 0  9997
2 40001  65.7831   5.3339 0004532 213.9564 237.7517  2.13102409 60846
COSMOS 2501 (702K)      
1 40315U 14075A   22099.03490396  .00000028  00000+0  00000+0 0  9994
2 40315  63.7055 243.5993 0016804 205.3608 145.9988  2.13101371 57240
COSMOS 2514 (751)       
1 41330U 16008A   22099.66589848 -.00000080  00000+0  00000+0 0  9999
2 41330  65.5841   5.0184 0008351 220.5534 270.9409  2.13102782 48029
COSMOS 2516 (753)       
1 41554U 16032A   22099.63377850  .00000026  00000+0  00000+0 0  9998
2 41554  63.9319 243.8352 0012626 211.2206 156.9801  2.13106082 45631
COSMOS 2522 (752)       
1 42939U 17055A   22099.13540166  .00000029  00000+0  00000+0 0  9992
2 42939  64.1659 244.2270 0005524 239.1113 324.6943  2.13101905 35378
COSMOS 2527 (756)       
1 43508U 18053A   22099.06287992  .00000058  00000+0  00000+0 0  9993
2 43508  64.9519 125.1648 0009610 240.3664 299.9101  2.13102539 29664
COSMOS 2529 (757)       
1 43687U 18086A   22099.07389940  .00000030  00000+0  00000+0 0  9994
2 43687  64.3803 244.5269 0007566 271.9765 200.1583  2.13102053 26685
COSMOS 2534 (758)       
1 44299U 19030A   22099.63830163  .00000027  00000+0  00000+0 0  9990
2 44299  64.4512 244.3858 0010645 293.6588  26.0847  2.13102161 22337
COSMOS 2544 (759)       
1 44850U 19088A   22099.47943819  .00000063  00000+0  00000+0 0  9991
2 44850  64.9371 125.0050 0014415 262.6419 280.7252  2.13102316 18106
COSMOS 2545 (760)       
1 45358U 20018A   22099.66053281 -.00000081  00000+0  00000+0 0  9997
2 45358  64.9210   5.6834 0008515 261.4628 270.4066  2.13102644 16064
COSMOS 2547 (705K)      
1 46805U 20075A   22099.69319598  .00000027  00000+0  00000+0 0  9996
2 46805  64.6754 243.7881 0005515 244.1250 165.1731  2.13103062 11312
